OBJECT_NAME,OBJECT_ID,EPOCH,MEAN_MOTION,ECCENTRICITY,INCLINATION,RA_OF_ASC_NODE,ARG_OF_PERICENTER,MEAN_ANOMALY,EPHEMERIS_TYPE,CLASSIFICATION_TYPE,NORAD_CAT_ID,ELEMENT_SET_NO,REV_AT_EPOCH,BSTAR,MEAN_MOTION_DOT,MEAN_MOTION_DDOT
COSMOS 2251 DEB,1993-036BLG,2024-10-02T14:06:43.671744,14.3603123700,0.0018601000,74.0279000000,359.1054000000,206.8293000000,153.1899000000,0,U,37340,999,77898,0.0009592700,0.0000276900,0E-10
COSMOS 2251 DEB,1993-036BLK,2024-09-17T17:07:32.876544,14.4650091600,0.0097736000,74.0164000000,66.6609000000,161.3516000000,199.1266000000,0,U,37343,999,2229,0.0227840000,0.0008811000,0E-10
COSMOS 2251 DEB,1993-036BLL,2024-10-04T04:02:16.680768,14.4220927800,0.0094774000,73.9754000000,233.3718000000,181.3998000000,178.6908000000,0,U,37483,999,77816,0.0011020000,0.0000380600,0E-10
COSMOS 2251 DEB,1993-036BLM,2024-09-28T20:28:51.656160,14.3765148000,0.0040814000,73.8257000000,312.0112000000,66.4645000000,106.7923000000,0,U,37484,999,59046,0.0017953000,0.0000542100,0E-10
COSMOS 2251 DEB,1993-036BLP,2024-10-05T11:08:56.992992,14.0541323400,0.0251589000,73.7009000000,173.5596000000,105.6854000000,65.0928000000,0,U,37486,999,57262,0.0119950000,0.0002592700,0E-10
COSMOS 2251 DEB,1993-036BLQ,2024-09-29T12:02:38.639904,14.5692242500,0.0039760000,73.9246000000,329.5542000000,270.2932000000,89.3675000000,0,U,37487,999,74789,0.0068992000,0.0003142000,0E-10
COSMOS 2251 DEB,1993-036BLU,2024-10-05T16:47:53.993472,13.7281423400,0.0323166000,73.9049000000,278.9430000000,353.2671000000,6.4151000000,0,U,37491,999,49797,0.0092032000,0.0001231400,0E-10
COSMOS 2251 DEB,1993-036BLZ,2024-10-05T21:13:07.306176,14.7043062500,0.0103658000,73.9571000000,102.1673000000,215.9013000000,143.5165000000,0,U,37496,999,59603,0.0080814000,0.0005355800,0E-10
COSMOS 2251 DEB,1993-036BMB,2024-10-05T06:42:16.478496,14.4970106700,0.0009263000,74.0380000000,281.3923000000,83.6507000000,276.5707000000,0,U,37498,999,59060,0.0053232000,0.0002053500,0E-10
COSMOS 2251 DEB,1993-036BMC,2024-10-05T14:13:03.836064,14.3365113400,0.0028626000,74.0390000000,34.7842000000,220.3035000000,139.5995000000,0,U,37499,999,78938,0.0011059000,0.0000305500,0E-10
COSMOS 2251 DEB,1993-036BMD,2024-10-05T20:00:33.615360,15.4458155900,0.0099093000,73.9521000000,116.1934000000,35.3696000000,325.4031000000,0,U,37500,999,83047,0.0010470000,0.0005905400,0E-10
COSMOS 2251 DEB,1993-036BMU,2024-10-06T01:48:04.180032,14.6813647300,0.0065005000,74.1398000000,42.8008000000,39.6361000000,320.9534000000,0,U,37515,999,79296,0.0170300000,0.0010254400,0E-10
COSMOS 2251 DEB,1993-036BMX,2024-09-17T08:22:34.959936,14.7290817200,0.0019119000,73.9950000000,128.4481000000,28.0379000000,332.1819000000,0,U,37518,999,59198,0.0159010000,0.0010377300,0E-10
COSMOS 2251 DEB,1993-036BNH,2024-10-05T13:08:59.922528,14.4799693800,0.0019463000,74.0396000000,214.8468000000,111.9824000000,248.3406000000,0,U,37528,999,79651,0.0026892000,0.0000999800,0E-10
COSMOS 2251 DEB,1993-036BNJ,2024-10-06T00:56:55.386816,15.2315553800,0.0015851000,74.0138000000,45.5206000000,269.4228000000,90.5154000000,0,U,37529,999,80162,0.0203360000,0.0051689000,0E-10
COSMOS 2251 DEB,1993-036BNK,2024-10-06T02:51:05.470848,14.3354631000,0.0027608000,74.0369000000,45.4367000000,217.2067000000,316.5330000000,0,U,37530,999,79029,0.0015193000,0.0000419800,0E-10
COSMOS 2251 DEB,1993-036BNM,2024-09-29T08:52:57.924768,14.4108628400,0.0014779000,74.0517000000,309.3061000000,167.2935000000,206.7034000000,0,U,37532,999,78583,0.0005873100,0.0000186800,0E-10
COSMOS 2251 DEB,1993-036BNN,2024-10-05T15:02:12.238656,14.0813139600,0.0164101000,74.0653000000,233.4599000000,33.6752000000,327.4683000000,0,U,37533,999,56814,0.0112180000,0.0002167000,0E-10
COSMOS 2251 DEB,1993-036BNQ,2024-10-05T11:55:16.412736,14.5358955100,0.0028503000,74.0266000000,176.0949000000,59.8822000000,113.0054000000,0,U,37535,999,79017,0.0036300000,0.0001525700,0E-10
COSMOS 2251 DEB,1993-036BNS,2024-10-04T11:19:27.377760,14.3648458300,0.0052668000,74.0149000000,344.9568000000,230.3850000000,129.2648000000,0,U,37537,999,78795,0.0011523000,0.0000341000,0E-10
COSMOS 2251 DEB,1993-036BNT,2024-10-02T15:45:15.578784,14.9149819900,0.0022580000,74.0101000000,359.7146000000,245.8591000000,114.0230000000,0,U,37538,999,76733,0.0105200000,0.0010743900,0E-10
COSMOS 2251 DEB,1993-036BPB,2024-10-05T05:47:56.963328,14.6277469200,0.0008168000,74.0288000000,222.3797000000,351.8739000000,8.2294000000,0,U,37546,999,59507,0.0107130000,0.0005510000,0E-10
COSMOS 2251 DEB,1993-036BPC,2024-10-05T09:14:24.126144,15.0569791800,0.0011745000,74.0261000000,322.5919000000,258.4852000000,101.5019000000,0,U,37547,999,60088,0.0120250000,0.0017854700,0E-10
COSMOS 2251 DEB,1993-036BPJ,2024-10-05T22:26:28.620672,14.5359890700,0.0061218000,74.0115000000,159.1511000000,46.1979000000,325.7692000000,0,U,37959,999,73899,0.0034464000,0.0001476900,0E-10
COSMOS 2251 DEB,1993-036BPK,2024-10-05T13:19:25.018752,14.0514734400,0.0257250000,74.0635000000,224.7862000000,346.1840000000,13.2342000000,0,U,37960,999,71477,0.0074550000,0.0001620500,0E-10
COSMOS 2251 DEB,1993-036BPL,2024-10-05T07:36:19.365984,14.5216515500,0.0043000000,74.0437000000,238.0226000000,65.7163000000,294.8480000000,0,U,37961,999,73759,0.0057375000,0.0002359700,0E-10
COSMOS 2251 DEB,1993-036BPR,2024-10-02T14:35:51.883296,14.7741214700,0.0019342000,73.9927000000,31.7137000000,359.4633000000,0.6517000000,0,U,37966,999,78829,0.0081731000,0.0005882900,0E-10
COSMOS 2251 DEB,1993-036BPS,2024-10-05T13:22:26.037984,14.3353571800,0.0164268000,74.0185000000,215.9296000000,98.2010000000,263.7809000000,0,U,37967,999,75316,0.0068564000,0.0002209600,0E-10
COSMOS 2251 DEB,1993-036BPT,2024-10-05T16:40:13.349280,14.8834081900,0.0102032000,74.0003000000,66.2782000000,294.3734000000,64.6822000000,0,U,37968,999,53748,0.0028446000,0.0002908800,0E-10
COSMOS 2251 DEB,1993-036BPU,2024-09-27T23:57:04.049856,14.2966442800,0.0136845000,73.9850000000,28.2610000000,330.0689000000,29.2683000000,0,U,37969,999,45136,0.0056456000,0.0001602200,0E-10
COSMOS 2251 DEB,1993-036BPW,2024-10-05T06:53:48.051744,14.4028304500,0.0075950000,73.9936000000,131.2771000000,10.2355000000,350.0324000000,0,U,37971,999,54417,0.0055419000,0.0001818500,0E-10
COSMOS 2251 DEB,1993-036BPY,2024-09-14T19:29:00.012480,14.3863955500,0.0038625000,74.0324000000,63.3933000000,251.4921000000,108.2035000000,0,U,37973,999,58452,0.0022402000,0.0000690400,0E-10
COSMOS 2251 DEB,1993-036BQA,2024-10-04T16:58:44.887008,14.5360874000,0.0135434000,74.0089000000,82.3555000000,179.1964000000,180.9443000000,0,U,37975,999,63384,0.0153030000,0.0007294200,0E-10
COSMOS 2251 DEB,1993-036BQC,2024-10-03T02:28:24.266496,14.8185616600,0.0015090000,73.9676000000,217.3302000000,108.9392000000,251.3422000000,0,U,37977,999,75297,0.0137160000,0.0011042300,0E-10
COSMOS 2251 DEB,1993-036BQD,2024-10-05T17:10:36.877440,14.9089229100,0.0052457000,74.0591000000,274.5224000000,42.9018000000,317.6237000000,0,U,37978,999,1828,0.0063346000,0.0006467200,0E-10
COSMOS 2251 DEB,1993-036BQL,2024-10-03T22:26:10.441248,14.3524322600,0.0022047000,74.0272000000,343.6851000000,216.3365000000,143.6292000000,0,U,37985,999,76925,0.0003031900,0.0000084400,0E-10
COSMOS 2251 DEB,1993-036BQP,2024-10-05T00:16:07.747392,14.6117683300,0.0073762000,74.0635000000,137.9364000000,289.7642000000,69.5580000000,0,U,37988,999,17041,0.0040998000,0.0002101500,0E-10
COSMOS 2251 DEB,1993-036BQU,2024-09-29T07:16:00.021792,14.5179374700,0.0023455000,74.0253000000,281.4519000000,115.9582000000,244.3999000000,0,U,37993,999,58919,0.0025040000,0.0001009500,0E-10
COSMOS 2251 DEB,1993-036BQV,2024-10-05T14:24:40.287456,14.3802389200,0.0022946000,74.0402000000,354.6821000000,186.8267000000,173.2578000000,0,U,37994,999,70834,0.0019664000,0.0000594800,0E-10
COSMOS 2251 DEB,1993-036BQZ,2024-10-03T19:38:28.491648,14.4252841700,0.0018647000,74.0388000000,324.2611000000,152.1281000000,208.0879000000,0,U,37998,999,58008,0.0028332000,0.0000940200,0E-10
COSMOS 2251 DEB,1993-036BRC,2024-10-06T05:20:14.472672,14.7180422900,0.0071632000,74.0034000000,260.5207000000,159.4302000000,212.4529000000,0,U,38001,999,78253,0.0024466000,0.0001592200,0E-10
COSMOS 2251 DEB,1993-036BRF,2024-10-05T23:23:06.360288,14.7933244000,0.0007240000,74.0260000000,167.7353000000,252.5254000000,107.5131000000,0,U,38004,999,79307,0.0049787000,0.0003726800,0E-10
COSMOS 2251 DEB,1993-036BRH,2024-10-05T21:06:54.821088,14.3530506100,0.0089735000,73.8491000000,129.4122000000,165.9626000000,194.4052000000,0,U,38006,999,56721,0.0087058000,0.0002618500,0E-10
COSMOS 2251 DEB,1993-036BRL,2024-10-03T22:03:17.431200,13.5760008300,0.0374635000,73.9551000000,254.9812000000,317.5515000000,67.2134000000,0,U,38054,999,67052,0.0271980000,0.0003092000,0E-10
COSMOS 2251 DEB,1993-036BRM,2024-10-04T10:26:57.652800,14.6898077200,0.0074446000,74.0140000000,334.7729000000,213.7067000000,157.3823000000,0,U,38055,999,54286,0.0034357000,0.0002103500,0E-10
COSMOS 2251 DEB,1993-036BRS,2024-10-03T14:46:04.853280,14.6008960600,0.0063117000,74.0457000000,48.3628000000,266.9860000000,92.4082000000,0,U,38060,999,78792,0.0026223000,0.0001296000,0E-10
COSMOS 2251 DEB,1993-036BRU,2024-10-05T16:35:30.670080,14.7308299300,0.0020461000,74.0174000000,70.8458000000,317.3399000000,54.4742000000,0,U,38062,999,56604,0.0072324000,0.0004699700,0E-10
COSMOS 2251 DEB,1993-036BRW,2024-10-05T21:15:48.792960,14.5120489800,0.0049401000,74.0253000000,223.0845000000,88.6473000000,272.0346000000,0,U,38064,999,65573,0.0045939000,0.0001856300,0E-10
COSMOS 2251 DEB,1993-036BRX,2024-10-05T21:37:23.259360,15.0844340500,0.0012615000,74.0069000000,140.9467000000,160.5257000000,211.0760000000,0,U,38065,999,65878,0.0179300000,0.0029132300,0E-10
COSMOS 2251 DEB,1993-036BRZ,2024-10-05T13:45:52.304256,14.5852981200,0.0074772000,74.0224000000,22.1326000000,278.1452000000,92.6123000000,0,U,38067,999,56234,0.0020376000,0.0000982600,0E-10
